UMBRA-07                
1 58297U 23174AT  26193.69547051  .00006033  00000+0  37916-3 0  9996
2 58297  97.3790 248.4970 0002494  22.7929 337.3411 15.09593405147265
TIANMU-1 14             
1 58648U 23205D   26193.86025880  .00003604  00000+0  13821-3 0  9991
2 58648  97.3394 214.2061 0006226 230.0096 130.0597 15.27117904141424
TIANMU-1 19             
1 58660U 23208A   26193.82951911  .00005229  00000+0  17204-3 0  9991
2 58660  97.4523 310.2692 0004356 207.3583 152.7430 15.31953857141258
TIANMU-1 20             
1 58661U 23208B   26193.84742596  .00005424  00000+0  17184-3 0  9995
2 58661  97.4465 310.9492 0006120 221.4227 138.6552 15.33143306141353
TIANMU-1 21             
1 58662U 23208C   26193.86174010  .00006416  00000+0  18812-3 0  9999
2 58662  97.4524 313.7568 0006478 213.0931 146.9908 15.35526109141502
TIANMU-1 22             
1 58663U 23208D   26193.82020307  .00004728  00000+0  15850-3 0  9998
2 58663  97.4520 310.1737 0002557 229.6280 130.4739 15.31407119141259
TIANMU-1 15             
1 58700U 24004A   26193.85356470  .00003251  00000+0  12585-3 0  9993
2 58700  97.4667  20.0443 0005891 238.6454 121.4208 15.26899404139693
TIANMU-1 16             
1 58701U 24004B   26193.84318942  .00003317  00000+0  12797-3 0  9993
2 58701  97.4614  19.2518 0004357 256.7388 103.3365 15.27002685139693
TIANMU-1 17             
1 58702U 24004C   26193.82866851  .00003482  00000+0  13423-3 0  9999
2 58702  97.4641  19.7316 0003854 263.8544  96.2256 15.27000820139686
TIANMU-1 18             
1 58703U 24004D   26193.87015817  .00003259  00000+0  12614-3 0  9996
2 58703  97.4659  20.0356 0003602 235.7270 124.3627 15.26916669139692
